{
  "type": "FeatureCollection",
  "features": [
    {
      "type": "Feature",
      "properties": {
        "norad_id": 58647,
        "name": "TIANMU-1 13",
        "group": "weather",
        "lat": -73.90163051188087,
        "lon": 170.76907599540647,
        "alt_km": 495.59636963457524,
        "timestamp": "2025-12-23T22:42:32.620939+00:00",
        "meta_object_name": "TIANMU-1 13",
        "meta_object_id": "2023-205C",
        "meta_epoch": "2025-12-23T07:24:53.760384",
        "meta_mean_motion": 15.24649949,
        "meta_eccentricity": 0.00064927,
        "meta_inclination": 97.3609,
        "meta_ra_of_asc_node": 16.7537,
        "meta_arg_of_pericenter": 220.5778,
        "meta_mean_anomaly": 139.4976,
        "meta_ephemeris_type": 0,
        "meta_classification_type": "U",
        "meta_norad_cat_id": 58647,
        "meta_element_set_no": 999,
        "meta_rev_at_epoch": 11068,
        "meta_bstar": 0.00025331747,
        "meta_mean_motion_dot": 6.188e-05,
        "meta_mean_motion_ddot": 0,
        "tle_line1": "1 58647U 23205C   25357.30895556  .00006188  00000+0  25332-3 0  9995",
        "tle_line2": "2 58647  97.3609  16.7537 0006492 220.5778 139.4976 15.24649949110685"
      },
      "geometry": {
        "type": "Point",
        "coordinates": [
          170.76907599540647,
          -73.90163051188087
        ]
      }
    },
    {
      "type": "Feature",
      "properties": {
        "norad_id": 58648,
        "name": "TIANMU-1 14",
        "group": "weather",
        "lat": -14.001824396469052,
        "lon": 18.563898763733544,
        "alt_km": 499.16499769288293,
        "timestamp": "2025-12-23T22:42:32.620955+00:00",
        "meta_object_name": "TIANMU-1 14",
        "meta_object_id": "2023-205D",
        "meta_epoch": "2025-12-23T07:01:09.551424",
        "meta_mean_motion": 15.24632451,
        "meta_eccentricity": 0.00072044,
        "meta_inclination": 97.3542,
        "meta_ra_of_asc_node": 16.0765,
        "meta_arg_of_pericenter": 226.8591,
        "meta_mean_anomaly": 133.2045,
        "meta_ephemeris_type": 0,
        "meta_classification_type": "U",
        "meta_norad_cat_id": 58648,
        "meta_element_set_no": 999,
        "meta_rev_at_epoch": 11068,
        "meta_bstar": 0.00026062367,
        "meta_mean_motion_dot": 6.366e-05,
        "meta_mean_motion_ddot": 0,
        "tle_line1": "1 58648U 23205D   25357.29247166  .00006366  00000+0  26062-3 0  9991",
        "tle_line2": "2 58648  97.3542  16.0765 0007204 226.8591 133.2045 15.24632451110681"
      },
      "geometry": {
        "type": "Point",
        "coordinates": [
          18.563898763733544,
          -14.001824396469052
        ]
      }
    },
    {
      "type": "Feature",
      "properties": {
        "norad_id": 58660,
        "name": "TIANMU-1 19",
        "group": "weather",
        "lat": 16.5388093553197,
        "lon": 106.73878675963317,
        "alt_km": 485.5365850617918,
        "timestamp": "2025-12-23T22:42:32.620971+00:00",
        "meta_object_name": "TIANMU-1 19",
        "meta_object_id": "2023-208A",
        "meta_epoch": "2025-12-23T06:55:10.909344",
        "meta_mean_motion": 15.28033764,
        "meta_eccentricity": 0.00046732,
        "meta_inclination": 97.4393,
        "meta_ra_of_asc_node": 108.3058,
        "meta_arg_of_pericenter": 207.3431,
        "meta_mean_anomaly": 152.7564,
        "meta_ephemeris_type": 0,
        "meta_classification_type": "U",
        "meta_norad_cat_id": 58660,
        "meta_element_set_no": 999,
        "meta_rev_at_epoch": 11043,
        "meta_bstar": 0.00036868442,
        "meta_mean_motion_dot": 0.00010013,
        "meta_mean_motion_ddot": 0,
        "tle_line1": "1 58660U 23208A   25357.28832071  .00010013  00000+0  36868-3 0  9991",
        "tle_line2": "2 58660  97.4393 108.3058 0004673 207.3431 152.7564 15.28033764110435"
      },
      "geometry": {
        "type": "Point",
        "coordinates": [
          106.73878675963317,
          16.5388093553197
        ]
      }
    },
    {
      "type": "Feature",
      "properties": {
        "norad_id": 58661,
        "name": "TIANMU-1 20",
        "group": "weather",
        "lat": 40.60126728510502,
        "lon": -64.1535940990999,
        "alt_km": 474.22422725107117,
        "timestamp": "2025-12-23T22:42:32.620991+00:00",
        "meta_object_name": "TIANMU-1 20",
        "meta_object_id": "2023-208B",
        "meta_epoch": "2025-12-23T06:23:55.925664",
        "meta_mean_motion": 15.29223007,
        "meta_eccentricity": 0.00067285,
        "meta_inclination": 97.4332,
        "meta_ra_of_asc_node": 108.7421,
        "meta_arg_of_pericenter": 222.0498,
        "meta_mean_anomaly": 138.0227,
        "meta_ephemeris_type": 0,
        "meta_classification_type": "U",
        "meta_norad_cat_id": 58661,
        "meta_element_set_no": 999,
        "meta_rev_at_epoch": 11050,
        "meta_bstar": 0.00036034962,
        "meta_mean_motion_dot": 0.00010151,
        "meta_mean_motion_ddot": 0,
        "tle_line1": "1 58661U 23208B   25357.26661951  .00010151  00000+0  36035-3 0  9996",
        "tle_line2": "2 58661  97.4332 108.7421 0006728 222.0498 138.0227 15.29223007110500"
      },
      "geometry": {
        "type": "Point",
        "coordinates": [
          -64.1535940990999,
          40.60126728510502
        ]
      }
    },
    {
      "type": "Feature",
      "properties": {
        "norad_id": 58662,
        "name": "TIANMU-1 21",
        "group": "weather",
        "lat": -64.57571467719569,
        "lon": -84.57212652015139,
        "alt_km": 474.03804167676935,
        "timestamp": "2025-12-23T22:42:32.621007+00:00",
        "meta_object_name": "TIANMU-1 21",
        "meta_object_id": "2023-208C",
        "meta_epoch": "2025-12-23T07:31:47.089344",
        "meta_mean_motion": 15.31767759,
        "meta_eccentricity": 0.00063519,
        "meta_inclination": 97.438,
        "meta_ra_of_asc_node": 110.7452,
        "meta_arg_of_pericenter": 216.1144,
        "meta_mean_anomaly": 143.9669,
        "meta_ephemeris_type": 0,
        "meta_classification_type": "U",
        "meta_norad_cat_id": 58662,
        "meta_element_set_no": 999,
        "meta_rev_at_epoch": 11061,
        "meta_bstar": 0.00036693882,
        "meta_mean_motion_dot": 0.00011188,
        "meta_mean_motion_ddot": 0,
        "tle_line1": "1 58662U 23208C   25357.31373946  .00011188  00000+0  36694-3 0  9999",
        "tle_line2": "2 58662  97.4380 110.7452 0006351 216.1144 143.9669 15.31767759110612"
      },
      "geometry": {
        "type": "Point",
        "coordinates": [
          -84.57212652015139,
          -64.57571467719569
        ]
      }
    },
    {
      "type": "Feature",
      "properties": {
        "norad_id": 58663,
        "name": "TIANMU-1 22",
        "group": "weather",
        "lat": 7.651930961507232,
        "lon": 108.01056871775863,
        "alt_km": 485.9457039945155,
        "timestamp": "2025-12-23T22:42:32.621023+00:00",
        "meta_object_name": "TIANMU-1 22",
        "meta_object_id": "2023-208D",
        "meta_epoch": "2025-12-23T06:57:22.324608",
        "meta_mean_motion": 15.27774908,
        "meta_eccentricity": 0.00028789,
        "meta_inclination": 97.4387,
        "meta_ra_of_asc_node": 108.3615,
        "meta_arg_of_pericenter": 232.0139,
        "meta_mean_anomaly": 128.0841,
        "meta_ephemeris_type": 0,
        "meta_classification_type": "U",
        "meta_norad_cat_id": 58663,
        "meta_element_set_no": 999,
        "meta_rev_at_epoch": 11044,
        "meta_bstar": 0.00035776445,
        "meta_mean_motion_dot": 9.635e-05,
        "meta_mean_motion_ddot": 0,
        "tle_line1": "1 58663U 23208D   25357.28984172  .00009635  00000+0  35776-3 0  9999",
        "tle_line2": "2 58663  97.4387 108.3615 0002878 232.0139 128.0841 15.27774908110441"
      },
      "geometry": {
        "type": "Point",
        "coordinates": [
          108.01056871775863,
          7.651930961507232
        ]
      }
    },
    {
      "type": "Feature",
      "properties": {
        "norad_id": 58700,
        "name": "TIANMU-1 15",
        "group": "weather",
        "lat": 7.7998243366036935,
        "lon": 178.3445279673417,
        "alt_km": 496.5306935095159,
        "timestamp": "2025-12-23T22:42:32.621059+00:00",
        "meta_object_name": "TIANMU-1 15",
        "meta_object_id": "2024-004A",
        "meta_epoch": "2025-12-23T06:55:19.627968",
        "meta_mean_motion": 15.24539216,
        "meta_eccentricity": 0.00060003,
        "meta_inclination": 97.4625,
        "meta_ra_of_asc_node": 178.7182,
        "meta_arg_of_pericenter": 245.2269,
        "meta_mean_anomaly": 114.8345,
        "meta_ephemeris_type": 0,
        "meta_classification_type": "U",
        "meta_norad_cat_id": 58700,
        "meta_element_set_no": 999,
        "meta_rev_at_epoch": 10895,
        "meta_bstar": 0.0002775737,
        "meta_mean_motion_dot": 6.763e-05,
        "meta_mean_motion_ddot": 0,
        "tle_line1": "1 58700U 24004A   25357.28842162  .00006763  00000+0  27757-3 0  9997",
        "tle_line2": "2 58700  97.4625 178.7182 0006000 245.2269 114.8345 15.24539216108952"
      },
      "geometry": {
        "type": "Point",
        "coordinates": [
          178.3445279673417,
          7.7998243366036935
        ]
      }
    }
  ]
}